{"type": "FeatureCollection", "features": [ {"type": "Feature", "properties": {"norad_id": 34058, "name": "COSMOS 2251 DEB", "group": "cosmos-2251-debris", "lat": -17.87479987423666, "lon": -7.307833480082054, "alt_km": 827.1673813253265, "timestamp": "2025-12-19T08:58:49.730689+00:00", "meta": {"OBJECT_NAME": "COSMOS 2251 DEB", "OBJECT_ID": "1993-036JV", "EPOCH": "2025-12-18T21:59:23.580960", "MEAN_MOTION": 13.5608556, "ECCENTRICITY": 0.03776832, "INCLINATION": 73.9314, "RA_OF_ASC_NODE": 168.1009, "ARG_OF_PERICENTER": 162.1654, "MEAN_ANOMALY": 318.9959, "EPHEMERIS_TYPE": 0, "CLASSIFICATION_TYPE": "U", "NORAD_CAT_ID": 34058, "ELEMENT_SET_NO": 999, "REV_AT_EPOCH": 83226, "BSTAR": 0.00058834481, "MEAN_MOTION_DOT": 6.32e-06, "MEAN_MOTION_DDOT": 0}, "tle": {"line1": "1 34058U 93036JV  25352.91624515  .00000632  00000+0  58834-3 0  9992", "line2": "2 34058  73.9314 168.1009 0377683 162.1654 318.9959 13.56085560832267"}}, "geometry": {"type": "Point", "coordinates": [-7.307833480082054, -17.87479987423666]}}, {"type": "Feature", "properties": {"norad_id": 34059, "name": "COSMOS 2251 DEB", "group": "cosmos-2251-debris", "lat": -27.246300280911175, "lon": 2.23704688204791, "alt_km": 711.563728639414, "timestamp": "2025-12-19T08:58:49.730699+00:00", "meta": {"OBJECT_NAME": "COSMOS 2251 DEB", "OBJECT_ID": "1993-036JW", "EPOCH": "2025-12-18T22:51:06.325056", "MEAN_MOTION": 14.52982124, "ECCENTRICITY": 0.00185047, "INCLINATION": 74.0365, "RA_OF_ASC_NODE": 174.5566, "ARG_OF_PERICENTER": 251.263, "MEAN_ANOMALY": 270.5815, "EPHEMERIS_TYPE": 0, "CLASSIFICATION_TYPE": "U", "NORAD_CAT_ID": 34059, "ELEMENT_SET_NO": 999, "REV_AT_EPOCH": 88549, "BSTAR": 0.00058794789, "MEAN_MOTION_DOT": 2.403e-05, "MEAN_MOTION_DDOT": 0}, "tle": {"line1": "1 34059U 93036JW  25352.95215654  .00002403  00000+0  58795-3 0  9991", "line2": "2 34059  74.0365 174.5566 0018504 251.2630 270.5815 14.52982124885499"}}, "geometry": {"type": "Point", "coordinates": [2.23704688204791, -27.246300280911175]}}, {"type": "Feature", "properties": {"norad_id": 34061, "name": "COSMOS 2251 DEB", "group": "cosmos-2251-debris", "lat": -67.92730718510467, "lon": 116.01883084338989, "alt_km": 759.696503381203, "timestamp": "2025-12-19T08:58:49.730709+00:00", "meta": {"OBJECT_NAME": "COSMOS 2251 DEB", "OBJECT_ID": "1993-036JY", "EPOCH": "2025-12-18T18:43:35.236416", "MEAN_MOTION": 14.4036991, "ECCENTRICITY": 0.00207254, "INCLINATION": 74.039, "RA_OF_ASC_NODE": 252.2239, "ARG_OF_PERICENTER": 328.2391, "MEAN_ANOMALY": 88.0965, "EPHEMERIS_TYPE": 0, "CLASSIFICATION_TYPE": "U", "NORAD_CAT_ID": 34061, "ELEMENT_SET_NO": 999, "REV_AT_EPOCH": 88267, "BSTAR": 0.00023792912, "MEAN_MOTION_DOT": 7.3e-06, "MEAN_MOTION_DDOT": 0}, "tle": {"line1": "1 34061U 93036JY  25352.78026894  .00000730  00000+0  23793-3 0  9992", "line2": "2 34061  74.0390 252.2239 0020725 328.2391  88.0965 14.40369910882672"}}, "geometry": {"type": "Point", "coordinates": [116.01883084338989, -67.92730718510467]}}, {"type": "Feature", "properties": {"norad_id": 34062, "name": "COSMOS 2251 DEB", "group": "cosmos-2251-debris", "lat": -31.102238919681163, "lon": -45.06438932088277, "alt_km": 587.3431759285495, "timestamp": "2025-12-19T08:58:49.730719+00:00", "meta": {"OBJECT_NAME": "COSMOS 2251 DEB", "OBJECT_ID": "1993-036JZ", "EPOCH": "2025-12-18T19:34:42.159936", "MEAN_MOTION": 14.78900679, "ECCENTRICITY": 0.00738945, "INCLINATION": 74.0276, "RA_OF_ASC_NODE": 126.0836, "ARG_OF_PERICENTER": 203.9995, "MEAN_ANOMALY": 276.4237, "EPHEMERIS_TYPE": 0, "CLASSIFICATION_TYPE": "U", "NORAD_CAT_ID": 34062, "ELEMENT_SET_NO": 999, "REV_AT_EPOCH": 88685, "BSTAR": 0.0022553035, "MEAN_MOTION_DOT": 0.00017416, "MEAN_MOTION_DDOT": 0}, "tle": {"line1": "1 34062U 93036JZ  25352.81576574  .00017416  00000+0  22553-2 0  9993", "line2": "2 34062  74.0276 126.0836 0073894 203.9995 276.4237 14.78900679886854"}}, "geometry": {"type": "Point", "coordinates": [-45.06438932088277, -31.102238919681163]}}, {"type": "Feature", "properties": {"norad_id": 34064, "name": "COSMOS 2251 DEB", "group": "cosmos-2251-debris", "lat": -73.11820771484648, "lon": -172.07332735993162, "alt_km": 747.1302715472821, "timestamp": "2025-12-19T08:58:49.730729+00:00", "meta": {"OBJECT_NAME": "COSMOS 2251 DEB", "OBJECT_ID": "1993-036KB", "EPOCH": "2025-12-18T18:31:53.474880", "MEAN_MOTION": 14.42358355, "ECCENTRICITY": 0.00222986, "INCLINATION": 74.0332, "RA_OF_ASC_NODE": 259.6766, "ARG_OF_PERICENTER": 325.381, "MEAN_ANOMALY": 65.5247, "EPHEMERIS_TYPE": 0, "CLASSIFICATION_TYPE": "U", "NORAD_CAT_ID": 34064, "ELEMENT_SET_NO": 999, "REV_AT_EPOCH": 88229, "BSTAR": 0.00037695353, "MEAN_MOTION_DOT": 1.223e-05, "MEAN_MOTION_DDOT": 0}, "tle": {"line1": "1 34064U 93036KB  25352.77214670  .00001223  00000+0  37695-3 0  9999", "line2": "2 34064  74.0332 259.6766 0022298 325.3810  65.5247 14.42358355882292"}}, "geometry": {"type": "Point", "coordinates": [-172.07332735993162, -73.11820771484648]}}, {"type": "Feature", "properties": {"norad_id": 34065, "name": "COSMOS 2251 DEB", "group": "cosmos-2251-debris", "lat": -6.520121356184354, "lon": 67.7764380855749, "alt_km": 779.0886837673725, "timestamp": "2025-12-19T08:58:49.730739+00:00", "meta": {"OBJECT_NAME": "COSMOS 2251 DEB", "OBJECT_ID": "1993-036KC", "EPOCH": "2025-12-18T04:26:46.348224", "MEAN_MOTION": 14.3806851, "ECCENTRICITY": 0.00166002, "INCLINATION": 74.0354, "RA_OF_ASC_NODE": 248.0907, "ARG_OF_PERICENTER": 344.565, "MEAN_ANOMALY": 169.5236, "EPHEMERIS_TYPE": 0, "CLASSIFICATION_TYPE": "U", "NORAD_CAT_ID": 34065, "ELEMENT_SET_NO": 999, "REV_AT_EPOCH": 88283, "BSTAR": 0.00013241747, "MEAN_MOTION_DOT": 3.75e-06, "MEAN_MOTION_DDOT": 0}, "tle": {"line1": "1 34065U 93036KC  25352.18525866  .00000375  00000+0  13242-3 0  9996", "line2": "2 34065  74.0354 248.0907 0016600 344.5650 169.5236 14.38068510882830"}}, "geometry": {"type": "Point", "coordinates": [67.7764380855749, -6.520121356184354]}}, {"type": "Feature", "properties": {"norad_id": 34070, "name": "COSMOS 2251 DEB", "group": "cosmos-2251-debris", "lat": -69.27169128948485, "lon": 53.92284488088546, "alt_km": 639.2040591056921, "timestamp": "2025-12-19T08:58:49.730749+00:00", "meta": {"OBJECT_NAME": "COSMOS 2251 DEB", "OBJECT_ID": "1993-036KH", "EPOCH": "2025-12-18T13:53:19.554720", "MEAN_MOTION": 14.77220288, "ECCENTRICITY": 0.00183565, "INCLINATION": 74.0006, "RA_OF_ASC_NODE": 104.791, "ARG_OF_PERICENTER": 221.5741, "MEAN_ANOMALY": 152.9404, "EPHEMERIS_TYPE": 0, "CLASSIFICATION_TYPE": "U", "NORAD_CAT_ID": 34070, "ELEMENT_SET_NO": 999, "REV_AT_EPOCH": 88697, "BSTAR": 0.0019519507, "MEAN_MOTION_DOT": 0.00013864, "MEAN_MOTION_DDOT": 0}, "tle": {"line1": "1 34070U 93036KH  25352.57869855  .00013864  00000+0  19520-2 0  9995", "line2": "2 34070  74.0006 104.7910 0018356 221.5741 152.9404 14.77220288886974"}}, "geometry": {"type": "Point", "coordinates": [53.92284488088546, -69.27169128948485]}}, {"type": "Feature", "properties": {"norad_id": 34114, "name": "COSMOS 2251 DEB", "group": "cosmos-2251-debris", "lat": -3.3168488941938854, "lon": 30.31196756579576, "alt_km": 677.5008831738123, "timestamp": "2025-12-19T08:58:49.730759+00:00", "meta": {"OBJECT_NAME": "COSMOS 2251 DEB", "OBJECT_ID": "1993-036KK", "EPOCH": "2025-12-18T13:54:35.234208", "MEAN_MOTION": 14.56453821, "ECCENTRICITY": 0.00477151, "INCLINATION": 74.0589, "RA_OF_ASC_NODE": 32.7661, "ARG_OF_PERICENTER": 25.2603, "MEAN_ANOMALY": 127.0142, "EPHEMERIS_TYPE": 0, "CLASSIFICATION_TYPE": "U", "NORAD_CAT_ID": 34114, "ELEMENT_SET_NO": 999, "REV_AT_EPOCH": 87886, "BSTAR": 0.001161277, "MEAN_MOTION_DOT": 5.215e-05, "MEAN_MOTION_DDOT": 0}, "tle": {"line1": "1 34114U 93036KK  25352.57957447  .00005215  00000+0  11613-2 0  9995", "line2": "2 34114  74.0589  32.7661 0047715  25.2603 127.0142 14.56453821878868"}}, "geometry": {"type": "Point", "coordinates": [30.31196756579576, -3.3168488941938854]}}, {"type": "Feature", "properties": {"norad_id": 34115, "name": "COSMOS 2251 DEB", "group": "cosmos-2251-debris", "lat": -55.53761711983384, "lon": -155.8426997921869, "alt_km": 644.0125198593678, "timestamp": "2025-12-19T08:58:49.730769+00:00", "meta": {"OBJECT_NAME": "COSMOS 2251 DEB", "OBJECT_ID": "1993-036KL", "EPOCH": "2025-12-18T17:01:08.467392", "MEAN_MOTION": 14.79566951, "ECCENTRICITY": 0.00287611, "INCLINATION": 74.0061, "RA_OF_ASC_NODE": 230.1714, "ARG_OF_PERICENTER": 51.8742, "MEAN_ANOMALY": 308.502, "EPHEMERIS_TYPE": 0, "CLASSIFICATION_TYPE": "U", "NORAD_CAT_ID": 34115, "ELEMENT_SET_NO": 999, "REV_AT_EPOCH": 89500, "BSTAR": 0.00067313121, "MEAN_MOTION_DOT": 5.045e-05, "MEAN_MOTION_DDOT": 0}, "tle": {"line1": "1 34115U 93036KL  25352.70912578  .00005045  00000+0  67313-3 0  9997", "line2": "2 34115  74.0061 230.1714 0028761  51.8742 308.5020 14.79566951895006"}}, "geometry": {"type": "Point", "coordinates": [-155.8426997921869, -55.53761711983384]}}, {"type": "Feature", "properties": {"norad_id": 34116, "name": "COSMOS 2251 DEB", "group": "cosmos-2251-debris", "lat": -8.334932205891482, "lon": 167.8590072807859, "alt_km": 721.675190191103, "timestamp": "2025-12-19T08:58:49.730780+00:00", "meta": {"OBJECT_NAME": "COSMOS 2251 DEB", "OBJECT_ID": "1993-036KM", "EPOCH": "2025-12-18T21:58:57.427680", "MEAN_MOTION": 14.53010535, "ECCENTRICITY": 0.00118985, "INCLINATION": 74.0393, "RA_OF_ASC_NODE": 171.1262, "ARG_OF_PERICENTER": 247.2605, "MEAN_ANOMALY": 228.0286, "EPHEMERIS_TYPE": 0, "CLASSIFICATION_TYPE": "U", "NORAD_CAT_ID": 34116, "ELEMENT_SET_NO": 999, "REV_AT_EPOCH": 88576, "BSTAR": 0.00059725979, "MEAN_MOTION_DOT": 2.44e-05, "MEAN_MOTION_DDOT": 0}, "tle": {"line1": "1 34116U 93036KM  25352.91594245  .00002440  00000+0  59726-3 0  9993", "line2": "2 34116  74.0393 171.1262 0011898 247.2605 228.0286 14.53010535885765"}}, "geometry": {"type": "Point", "coordinates": [167.8590072807859, -8.334932205891482]}}]}